[ {
  "OBJECT_ID": "1998-023C",
  "OBJECT_NAME": "GLOBALSTAR M015",
  "NORAD_CAT_ID": "25308",
  "OBJECT_TYPE": "PAYLOAD",
  "PERIOD": "125.346",
  "INCLINATION": "51.9796",
  "APOGEE": "1928.824",
  "PERIGEE": "1908.159",
  "ECCENTRICITY": "0.0012454",
  "MEAN_MOTION": "11.4881581",
  "TLE_LINE1": "1 25308U 98023C   16239.52000834 -.00000051  00000-0  51352-3 0  9999",
  "TLE_LINE2": "2 25308  51.9796 259.4059 0012454 116.8257  52.2604 11.48815810824759",
  "LAUNCH_DATE": "1998-04-24",
  "LAUNCH_SITE": "AIR FORCE EASTERN TEST RANGE",
  "OWNER": "GLOBALSTAR",
  "ORBIT_TYPE": "Low Earth Orbit",
  "OPERATIONAL_STATUS": "Nonoperational"
}, {
  "OBJECT_ID": "1998-023D",
  "OBJECT_NAME": "GLOBALSTAR M008",
  "NORAD_CAT_ID": "25309",
  "OBJECT_TYPE": "PAYLOAD",
  "PERIOD": "116.509",
  "INCLINATION": "51.9963",
  "APOGEE": "1525.529",
  "PERIGEE": "1522.065",
  "ECCENTRICITY": "0.0002192",
  "MEAN_MOTION": "12.3595535",
  "TLE_LINE1": "1 25309U 98023D   16239.24215019 -.00000087  00000-0  70409-4 0  9996",
  "TLE_LINE2": "2 25309  51.9963 163.6244 0002192 241.7592 273.3948 12.35955350840358",
  "LAUNCH_DATE": "1998-04-24",
  "LAUNCH_SITE": "AIR FORCE EASTERN TEST RANGE",
  "OWNER": "GLOBALSTAR",
  "ORBIT_TYPE": "Low Earth Orbit",
  "OPERATIONAL_STATUS": "Nonoperational"
}, {
  "OBJECT_ID": "1998-026A",
  "OBJECT_NAME": "IRIDIUM 69",
  "NORAD_CAT_ID": "25319",
  "OBJECT_TYPE": "PAYLOAD",
  "PERIOD": "100.096",
  "INCLINATION": "86.402",
  "APOGEE": "765.492",
  "PERIGEE": "760.710",
  "ECCENTRICITY": "0.0003348",
  "MEAN_MOTION": "14.38608539",
  "TLE_LINE1": "1 25319U 98026A   16239.48075972  .00000089  00000-0  22418-4 0  9996",
  "TLE_LINE2": "2 25319  86.4020   9.6966 0003348 125.8348 234.3162 14.38608539960662",
  "LAUNCH_DATE": "1998-05-02",
  "LAUNCH_SITE": "Taiyaun Space Center, China",
  "OWNER": "UNITED STATES OF AMERICA",
  "ORBIT_TYPE": "Low Earth Orbit",
  "OPERATIONAL_STATUS": "Nonoperational"
}, {
  "OBJECT_ID": "1998-026B",
  "OBJECT_NAME": "IRIDIUM 71",
  "NORAD_CAT_ID": "25320",
  "OBJECT_TYPE": "PAYLOAD",
  "PERIOD": "100.067",
  "INCLINATION": "86.4007",
  "APOGEE": "762.750",
  "PERIGEE": "760.708",
  "ECCENTRICITY": "0.000143",
  "MEAN_MOTION": "14.39023161",
  "TLE_LINE1": "1 25320U 98026B   16239.48610054  .00000098  00000-0  25210-4 0  9997",
  "TLE_LINE2": "2 25320  86.4007   5.7272 0001430 157.7555 202.3705 14.39023161961088",
  "LAUNCH_DATE": "1998-05-02",
  "LAUNCH_SITE": "Taiyaun Space Center, China",
  "OWNER": "UNITED STATES OF AMERICA",
  "ORBIT_TYPE": "Low Earth Orbit",
  "OPERATIONAL_STATUS": "Nonoperational"
}, {
  "OBJECT_ID": "1998-032C",
  "OBJECT_NAME": "IRIDIUM 73",
  "NORAD_CAT_ID": "25344",
  "OBJECT_TYPE": "PAYLOAD",
  "PERIOD": "99.381",
  "INCLINATION": "86.4461",
  "APOGEE": "730.479",
  "PERIGEE": "727.607",
  "ECCENTRICITY": "0.0002021",
  "MEAN_MOTION": "14.48961794",
  "TLE_LINE1": "1 25344U 98032C   16239.33780319  .00000111  00000-0  23884-4 0  9997",
  "TLE_LINE2": "2 25344  86.4461 327.5474 0002021  76.0932 284.0497 14.48961794964852",
  "LAUNCH_DATE": "1998-05-17",
  "LAUNCH_SITE": "AIR FORCE WESTERN TEST RANGE",
  "OWNER": "UNITED STATES OF AMERICA",
  "ORBIT_TYPE": "Low Earth Orbit",
  "OPERATIONAL_STATUS": "Nonoperational"
}, {
  "OBJECT_ID": "1998-043C",
  "OBJECT_NAME": "TMSAT",
  "NORAD_CAT_ID": "25396",
  "OBJECT_TYPE": "PAYLOAD",
  "PERIOD": "101.094",
  "INCLINATION": "98.5443",
  "APOGEE": "813.232",
  "PERIGEE": "807.765",
  "ECCENTRICITY": "0.0003802",
  "MEAN_MOTION": "14.24404083",
  "TLE_LINE1": "1 25396U 98043C   16239.48772958  .00000014  00000-0  24542-4 0  9996",
  "TLE_LINE2": "2 25396  98.5443 184.7900 0003802  99.3831 260.7778 14.24404083942210",
  "LAUNCH_DATE": "1998-07-10",
  "LAUNCH_SITE": "TYURATAM MISSILE AND SPACE COMPLEX",
  "OWNER": "THAILAND",
  "ORBIT_TYPE": "Low Earth Orbit",
  "OPERATIONAL_STATUS": "Nonoperational"
}, {
  "OBJECT_ID": "1998-043E",
  "OBJECT_NAME": "WESTPAC",
  "NORAD_CAT_ID": "25398",
  "OBJECT_TYPE": "PAYLOAD",
  "PERIOD": "101.207",
  "INCLINATION": "98.5804",
  "APOGEE": "817.614",
  "PERIGEE": "814.099",
  "ECCENTRICITY": "0.0002443",
  "MEAN_MOTION": "14.22813177",
  "TLE_LINE1": "1 25398U 98043E   16238.91401743 -.00000022 +00000-0 +93881-5 0  9999",
  "TLE_LINE2": "2 25398 098.5804 180.5748 0002443 103.0938 257.0514 14.22813177941513",
  "LAUNCH_DATE": "1998-07-10",
  "LAUNCH_SITE": "TYURATAM MISSILE AND SPACE COMPLEX",
  "OWNER": "AUSTRALIA",
  "ORBIT_TYPE": "Low Earth Orbit",
  "OPERATIONAL_STATUS": "Nonoperational"
}, {
  "OBJECT_ID": "1998-043F",
  "OBJECT_NAME": "SAFIR 2",
  "NORAD_CAT_ID": "25399",
  "OBJECT_TYPE": "PAYLOAD",
  "PERIOD": "101.084",
  "INCLINATION": "98.5357",
  "APOGEE": "812.083",
  "PERIGEE": "807.904",
  "ECCENTRICITY": "0.0002907",
  "MEAN_MOTION": "14.24554241",
  "TLE_LINE1": "1 25399U 98043F   16239.46052442  .00000002  00000-0  19191-4 0  9997",
  "TLE_LINE2": "2 25399  98.5357 185.0642 0002907  69.1572 290.9918 14.24554241942309",
  "LAUNCH_DATE": "1998-07-10",
  "LAUNCH_SITE": "TYURATAM MISSILE AND SPACE COMPLEX",
  "OWNER": "GERMANY",
  "ORBIT_TYPE": "Low Earth Orbit",
  "OPERATIONAL_STATUS": "Nonoperational"
}, {
  "OBJECT_ID": "1998-046A",
  "OBJECT_NAME": "ORBCOMM FM 17",
  "NORAD_CAT_ID": "25413",
  "OBJECT_TYPE": "PAYLOAD",
  "PERIOD": "100.669",
  "INCLINATION": "44.9946",
  "APOGEE": "791.499",
  "PERIGEE": "789.117",
  "ECCENTRICITY": "0.0001661",
  "MEAN_MOTION": "14.30426202",
  "TLE_LINE1": "1 25413U 98046A   16238.94685963 +.00000097 +00000-0 +90183-4 0  9993",
  "TLE_LINE2": "2 25413 044.9946 233.0734 0001661 318.9978 041.0742 14.30426202942168",
  "LAUNCH_DATE": "1998-08-02",
  "LAUNCH_SITE": "Pegasus launched from Eastern Range Air Space",
  "OWNER": "ORBITAL TELECOMMUNICATIONS SATELLITE (GLOBALSTAR)",
  "ORBIT_TYPE": "Low Earth Orbit",
  "OPERATIONAL_STATUS": "Nonoperational"
}, {
  "OBJECT_ID": "1998-053B",
  "OBJECT_NAME": "ORBCOMM FM 22",
  "NORAD_CAT_ID": "25476",
  "OBJECT_TYPE": "PAYLOAD",
  "PERIOD": "100.524",
  "INCLINATION": "45.0094",
  "APOGEE": "784.110",
  "PERIGEE": "782.720",
  "ECCENTRICITY": "9.7e-05",
  "MEAN_MOTION": "14.32491947",
  "TLE_LINE1": "1 25476U 98053B   16239.48364390  .00000075  00000-0  78887-4 0  9991",
  "TLE_LINE2": "2 25476  45.0094 289.9212 0000970 294.1488  65.9256 14.32491947935973",
  "LAUNCH_DATE": "1998-09-23",
  "LAUNCH_SITE": "Pegasus launched from Eastern Range Air Space",
  "OWNER": "ORBITAL TELECOMMUNICATIONS SATELLITE (GLOBALSTAR)",
  "ORBIT_TYPE": "Low Earth Orbit",
  "OPERATIONAL_STATUS": "Nonoperational"
}, {
  "OBJECT_ID": "1998-053D",
  "OBJECT_NAME": "ORBCOMM FM 24",
  "NORAD_CAT_ID": "25478",
  "OBJECT_TYPE": "PAYLOAD",
  "PERIOD": "100.534",
  "INCLINATION": "45.0101",
  "APOGEE": "784.998",
  "PERIGEE": "782.805",
  "ECCENTRICITY": "0.0001531",
  "MEAN_MOTION": "14.32345869",
  "TLE_LINE1": "1 25478U 98053D   16239.22304027  .00000080  00000-0  80864-4 0  9990",
  "TLE_LINE2": "2 25478  45.0101 292.4692 0001531 239.6506 120.4189 14.32345869936079",
  "LAUNCH_DATE": "1998-09-23",
  "LAUNCH_SITE": "Pegasus launched from Eastern Range Air Space",
  "OWNER": "ORBITAL TELECOMMUNICATIONS SATELLITE (GLOBALSTAR)",
  "ORBIT_TYPE": "Low Earth Orbit",
  "OPERATIONAL_STATUS": "Nonoperational"
}, {
  "OBJECT_ID": "1998-053E",
  "OBJECT_NAME": "ORBCOMM FM 25",
  "NORAD_CAT_ID": "25479",
  "OBJECT_TYPE": "PAYLOAD",
  "PERIOD": "100.532",
  "INCLINATION": "45.0092",
  "APOGEE": "784.651",
  "PERIGEE": "783.000",
  "ECCENTRICITY": "0.0001153",
  "MEAN_MOTION": "14.32368797",
  "TLE_LINE1": "1 25479U 98053E   16239.49085984  .00000063  00000-0  74661-4 0  9997",
  "TLE_LINE2": "2 25479  45.0092 289.9045 0001153  68.0421 292.0548 14.32368797936128",
  "LAUNCH_DATE": "1998-09-23",
  "LAUNCH_SITE": "Pegasus launched from Eastern Range Air Space",
  "OWNER": "ORBITAL TELECOMMUNICATIONS SATELLITE (GLOBALSTAR)",
  "ORBIT_TYPE": "Low Earth Orbit",
  "OPERATIONAL_STATUS": "Nonoperational"
}, {
  "OBJECT_ID": "1998-053F",
  "OBJECT_NAME": "ORBCOMM FM 26",
  "NORAD_CAT_ID": "25480",
  "OBJECT_TYPE": "PAYLOAD",
  "PERIOD": "100.542",
  "INCLINATION": "45.0081",
  "APOGEE": "786.878",
  "PERIGEE": "781.743",
  "ECCENTRICITY": "0.0003585",
  "MEAN_MOTION": "14.3222333",
  "TLE_LINE1": "1 25480U 98053F   16239.17606920  .00000086  00000-0  83374-4 0  9999",
  "TLE_LINE2": "2 25480  45.0081 280.6024 0003585  97.7261 262.3992 14.32223330936187",
  "LAUNCH_DATE": "1998-09-23",
  "LAUNCH_SITE": "Pegasus launched from Eastern Range Air Space",
  "OWNER": "ORBITAL TELECOMMUNICATIONS SATELLITE (GLOBALSTAR)",
  "ORBIT_TYPE": "Low Earth Orbit",
  "OPERATIONAL_STATUS": "Nonoperational"
}, {
  "OBJECT_ID": "1998-053H",
  "OBJECT_NAME": "ORBCOMM FM 28",
  "NORAD_CAT_ID": "25482",
  "OBJECT_TYPE": "PAYLOAD",
  "PERIOD": "100.473",
  "INCLINATION": "45.0083",
  "APOGEE": "781.982",
  "PERIGEE": "780.044",
  "ECCENTRICITY": "0.0001353",
  "MEAN_MOTION": "14.33212875",
  "TLE_LINE1": "1 25482U 98053H   16239.11003132  .00000064  00000-0  73883-4 0  9991",
  "TLE_LINE2": "2 25482  45.0083 245.0247 0001353 106.0996 253.9999 14.33212875936662",
  "LAUNCH_DATE": "1998-09-23",
  "LAUNCH_SITE": "Pegasus launched from Eastern Range Air Space",
  "OWNER": "ORBITAL TELECOMMUNICATIONS SATELLITE (GLOBALSTAR)",
  "ORBIT_TYPE": "Low Earth Orbit",
  "OPERATIONAL_STATUS": "Nonoperational"
}, {
  "OBJECT_ID": "1998-061B",
  "OBJECT_NAME": "SEDSAT 1",
  "NORAD_CAT_ID": "25509",
  "OBJECT_TYPE": "PAYLOAD",
  "PERIOD": "100.683",
  "INCLINATION": "31.434",
  "APOGEE": "1040.000",
  "PERIGEE": "541.999",
  "ECCENTRICITY": "0.0347323",
  "MEAN_MOTION": "14.30219158",
  "TLE_LINE1": "1 25509U 98061B   16239.50146947  .00000154  00000-0  16806-4 0  9997",
  "TLE_LINE2": "2 25509  31.4340 297.0433 0347323 299.5606  57.0824 14.30219158931929",
  "LAUNCH_DATE": "1998-10-24",
  "LAUNCH_SITE": "AIR FORCE EASTERN TEST RANGE",
  "OWNER": "UNITED STATES OF AMERICA",
  "ORBIT_TYPE": "Low Earth Orbit",
  "OPERATIONAL_STATUS": "Nonoperational"
}]